GLOBALSTAR M024         
1 25883U 99043A   25309.76226399 -.00000114  00000+0 -17312-2 0  9997
2 25883  52.0031  61.1741 0000818 357.5269 158.2443 11.10170476130585
GLOBALSTAR M027         
1 25884U 99043B   25309.51434128 -.00000016  00000+0  18034-2 0  9994
2 25884  52.0170 143.7244 0020641 217.3430 142.5929 11.04372792156855
GLOBALSTAR M054         
1 25885U 99043C   25309.82145047 -.00000030  00000+0  10510-2 0  9995
2 25885  52.0130 246.5704 0005813  58.4222 327.7191 11.39222584135195
GLOBALSTAR M053         
1 25886U 99043D   25309.99786904 -.00000043  00000+0  74625-3 0  9999
2 25886  51.9966 201.1117 0003373 343.2422 118.6714 11.27668041135447
GLOBALSTAR M058         
1 25907U 99049A   25309.71320301 -.00000087  00000+0 -31958-4 0  9996
2 25907  51.9922  91.2577 0002294 163.5070 196.5839 11.93203878558431
GLOBALSTAR M050         
1 25908U 99049B   25309.78959706 -.00000059  00000+0  32377-3 0  9994
2 25908  51.9978  88.1508 0008244 316.8523 191.5312 12.07459785165294
GLOBALSTAR M033         
1 25909U 99049C   25309.97116011 -.00000101  00000+0 -93156-4 0  9992
2 25909  51.9926 309.6942 0013711 196.1537 163.8875 12.20292603553050
GLOBALSTAR M055         
1 25910U 99049D   25309.96321574 -.00000064  00000+0  26326-3 0  9996
2 25910  52.0031 313.5615 0007246  65.8761 294.2848 12.29435072185721
